start=new Date('2022-04-30T00:00:00.000Z').valueOf();
sats=[{"OBJECT_TYPE":"PAYLOAD","RA_OF_ASC_NODE":"90.3229","EPHEMERIS_TYPE":"0","TIME_SYSTEM":"UTC","REV_AT_EPOCH":"361","ELEMENT_SET_NO":"999","MEAN_ANOMALY":"154.1398","GP_ID":"202310725","SEMIMAJOR_AXIS":"6925.419","PERIAPSIS":"546.315","ARG_OF_PERICENTER":"61.8029","CLASSIFICATION_TYPE":"U","LAUNCH_DATE":"2021-03-24","OBJECT_NAME":"STARLINK-2271","MEAN_ELEMENT_THEORY":"SGP4","MEAN_MOTION_DDOT":"0.0000000000000","PERIOD":"95.594","SITE":"AFETR","TLE_LINE2":"2 48008  53.0547  90.3229 0001399  61.8029 154.1398 15.06377023  3614","FILE":"3421985","BSTAR":"0.00118180000000","EPOCH":"2022-04-29T22:00:00.999936","ECCENTRICITY":"0.00013990","REF_FRAME":"TEME","OBJECT_ID":"2021-024AH","COUNTRY_CODE":"US","TLE_LINE1":"1 48008U 21024AH  22119.91667824  .00017354  00000-0  11818-2 0  9998","MEAN_MOTION_DOT":"0.00017354","APOAPSIS":"548.253","CENTER_NAME":"EARTH","RCS_SIZE":"LARGE","DECAY_DATE":null,"NORAD_CAT_ID":"48008","MEAN_MOTION":"15.06377023","INCLINATION":"53.0547"},{"RCS_SIZE":"LARGE","CENTER_NAME":"EARTH","APOAPSIS":"548.622","TLE_LINE1":"1 48009U 21024AJ  22119.60371294 -.00000625  00000-0 -23026-4 0  9999","MEAN_MOTION_DOT":"-0.00000625","INCLINATION":"53.0561","MEAN_MOTION":"15.06404376","DECAY_DATE":null,"NORAD_CAT_ID":"48009","FILE":"3421985","PERIOD":"95.592","SITE":"AFETR","TLE_LINE2":"2 48009  53.0561 166.7247 0002053  36.6194 323.4935 15.06404376 62255","MEAN_MOTION_DDOT":"0.0000000000000","OBJECT_ID":"2021-024AJ","COUNTRY_CODE":"US","ECCENTRICITY":"0.00020530","REF_FRAME":"TEME","EPOCH":"2022-04-29T14:29:20.798016","BSTAR":"-0.00002302600000","ARG_OF_PERICENTER":"36.6194","PERIAPSIS":"545.778","GP_ID":"202310482","SEMIMAJOR_AXIS":"6925.335","OBJECT_NAME":"STARLINK-2153","LAUNCH_DATE":"2021-03-24","MEAN_ELEMENT_THEORY":"SGP4","CLASSIFICATION_TYPE":"U","RA_OF_ASC_NODE":"166.7247","OBJECT_TYPE":"PAYLOAD","MEAN_ANOMALY":"323.4935","ELEMENT_SET_NO":"999","REV_AT_EPOCH":"6225","EPHEMERIS_TYPE":"0","TIME_SYSTEM":"UTC"},{"INCLINATION":"53.0533","MEAN_MOTION":"15.06397364","DECAY_DATE":null,"NORAD_CAT_ID":"48010","RCS_SIZE":"LARGE","CENTER_NAME":"EARTH","APOAPSIS":"548.285","MEAN_MOTION_DOT":"-0.00000147","TLE_LINE1":"1 48010U 21024AK  22119.61661080 -.00000147  00000-0  90321-5 0  9998","COUNTRY_CODE":"US","OBJECT_ID":"2021-024AK","REF_FRAME":"TEME","ECCENTRICITY":"0.00015360","BSTAR":"0.00000903210000","EPOCH":"2022-04-29T14:47:55.173120","FILE":"3421985","SITE":"AFETR","TLE_LINE2":"2 48010  53.0533 186.6747 0001536  62.3536 297.7609 15.06397364 61970","PERIOD":"95.592","MEAN_MOTION_DDOT":"0.0000000000000","MEAN_ELEMENT_THEORY":"SGP4","OBJECT_NAME":"STARLINK-2226","LAUNCH_DATE":"2021-03-24","CLASSIFICATION_TYPE":"U","ARG_OF_PERICENTER":"62.3536","PERIAPSIS":"546.158","SEMIMAJOR_AXIS":"6925.357","GP_ID":"202309231","MEAN_ANOMALY":"297.7609","ELEMENT_SET_NO":"999","REV_AT_EPOCH":"6197","TIME_SYSTEM":"UTC","EPHEMERIS_TYPE":"0","OBJECT_TYPE":"PAYLOAD","RA_OF_ASC_NODE":"186.6747"},{"RA_OF_ASC_NODE":"165.6938","OBJECT_TYPE":"PAYLOAD","ELEMENT_SET_NO":"999","MEAN_ANOMALY":"318.7060","EPHEMERIS_TYPE":"0","TIME_SYSTEM":"UTC","REV_AT_EPOCH":"6234","PERIAPSIS":"545.881","ARG_OF_PERICENTER":"41.4075","GP_ID":"202309481","SEMIMAJOR_AXIS":"6925.360","CLASSIFICATION_TYPE":"U","MEAN_ELEMENT_THEORY":"SGP4","LAUNCH_DATE":"2021-03-24","OBJECT_NAME":"STARLINK-2272","FILE":"3421985","MEAN_MOTION_DDOT":"0.0000000000000","SITE":"AFETR","TLE_LINE2":"2 48011  53.0535 165.6938 0001940  41.4075 318.7060 15.06396421 62347","PERIOD":"95.592","COUNTRY_CODE":"US","OBJECT_ID":"2021-024AL","BSTAR":"-0.00010266000000","EPOCH":"2022-04-29T20:07:41.072448","REF_FRAME":"TEME","ECCENTRICITY":"0.00019400","APOAPSIS":"548.568","CENTER_NAME":"EARTH","RCS_SIZE":"LARGE","MEAN_MOTION_DOT":"-0.00001810","TLE_LINE1":"1 48011U 21024AL  22119.83866982 -.00001810  00000-0 -10266-3 0  9998","MEAN_MOTION":"15.06396421","INCLINATION":"53.0535","DECAY_DATE":null,"NORAD_CAT_ID":"48011"},{"CLASSIFICATION_TYPE":"U","MEAN_ELEMENT_THEORY":"SGP4","LAUNCH_DATE":"2021-03-24","OBJECT_NAME":"STARLINK-2216","PERIAPSIS":"436.848","ARG_OF_PERICENTER":"329.4217","GP_ID":"202274905","SEMIMAJOR_AXIS":"6817.522","ELEMENT_SET_NO":"999","MEAN_ANOMALY":"30.6570","TIME_SYSTEM":"UTC","EPHEMERIS_TYPE":"0","REV_AT_EPOCH":"6284","RA_OF_ASC_NODE":"126.9213","OBJECT_TYPE":"PAYLOAD","MEAN_MOTION":"15.42279141","INCLINATION":"53.0537","DECAY_DATE":null,"NORAD_CAT_ID":"48012","APOAPSIS":"441.925","CENTER_NAME":"EARTH","RCS_SIZE":"LARGE","MEAN_MOTION_DOT":"0.00033099","TLE_LINE1":"1 48012U 21024AM  22119.31467566  .00033099  00000-0  76356-3 0  9991","COUNTRY_CODE":"US","OBJECT_ID":"2021-024AM","EPOCH":"2022-04-29T07:33:07.977024","BSTAR":"0.00076356000000","REF_FRAME":"TEME","ECCENTRICITY":"0.00037230","FILE":"3421553","MEAN_MOTION_DDOT":"0.0000000000000","TLE_LINE2":"2 48012  53.0537 126.9213 0003723 329.4217  30.6570 15.42279141 62844","SITE":"AFETR","PERIOD":"93.368"},{"INCLINATION":"53.0543","MEAN_MOTION":"15.06392347","NORAD_CAT_ID":"48013","DECAY_DATE":null,"RCS_SIZE":"LARGE","CENTER_NAME":"EARTH","APOAPSIS":"548.570","MEAN_MOTION_DOT":"-0.00000577","TLE_LINE1":"1 48013U 21024AN  22119.52954188 -.00000577  00000-0 -19842-4 0  9991","COUNTRY_CODE":"US","OBJECT_ID":"2021-024AN","REF_FRAME":"TEME","ECCENTRICITY":"0.00019250","EPOCH":"2022-04-29T12:42:32.418432","BSTAR":"-0.00001984200000","FILE":"3421814","TLE_LINE2":"2 48013  53.0543 152.0805 0001925  43.1744 316.9396 15.06392347 61980","SITE":"AFETR","PERIOD":"95.593","MEAN_MOTION_DDOT":"0.0000000000000","MEAN_ELEMENT_THEORY":"SGP4","OBJECT_NAME":"STARLINK-2243","LAUNCH_DATE":"2021-03-24","CLASSIFICATION_TYPE":"U","ARG_OF_PERICENTER":"43.1744","PERIAPSIS":"545.904","SEMIMAJOR_AXIS":"6925.372","GP_ID":"202284295","MEAN_ANOMALY":"316.9396","ELEMENT_SET_NO":"999","REV_AT_EPOCH":"6198","EPHEMERIS_TYPE":"0","TIME_SYSTEM":"UTC","RA_OF_ASC_NODE":"152.0805","OBJECT_TYPE":"PAYLOAD"},{"CLASSIFICATION_TYPE":"U","MEAN_ELEMENT_THEORY":"SGP4","OBJECT_NAME":"STARLINK-2283","LAUNCH_DATE":"2021-03-24","PERIAPSIS":"548.374","ARG_OF_PERICENTER":"45.2134","SEMIMAJOR_AXIS":"6927.899","GP_ID":"202309725","ELEMENT_SET_NO":"999","MEAN_ANOMALY":"162.3235","TIME_SYSTEM":"UTC","EPHEMERIS_TYPE":"0","REV_AT_EPOCH":"360","OBJECT_TYPE":"PAYLOAD","RA_OF_ASC_NODE":"114.8174","MEAN_MOTION":"15.05568176","INCLINATION":"53.0527","DECAY_DATE":null,"NORAD_CAT_ID":"48014","APOAPSIS":"551.154","CENTER_NAME":"EARTH","RCS_SIZE":"LARGE","MEAN_MOTION_DOT":"0.00007573","TLE_LINE1":"1 48014U 21024AP  22119.91667824  .00007573  00000-0  53855-3 0  9995","COUNTRY_CODE":"US","OBJECT_ID":"2021-024AP","EPOCH":"2022-04-29T22:00:00.999936","BSTAR":"0.00053855000000","REF_FRAME":"TEME","ECCENTRICITY":"0.00020060","FILE":"3421985","MEAN_MOTION_DDOT":"0.0000000000000","SITE":"AFETR","TLE_LINE2":"2 48014  53.0527 114.8174 0002006  45.2134 162.3235 15.05568176  3609","PERIOD":"95.645"},{"BSTAR":"-0.00061203000000","EPOCH":"2022-04-29T22:00:00.999936","REF_FRAME":"TEME","ECCENTRICITY":"0.00019960","COUNTRY_CODE":"US","OBJECT_ID":"2021-024AR","MEAN_MOTION_DDOT":"0.0000000000000","SITE":"AFETR","TLE_LINE2":"2 48016  53.0539 100.3260 0001996  46.7515 114.1688 15.06393739  3605","PERIOD":"95.593","FILE":"3421985","DECAY_DATE":null,"NORAD_CAT_ID":"48016","MEAN_MOTION":"15.06393739","INCLINATION":"53.0539","MEAN_MOTION_DOT":"-0.00009385","TLE_LINE1":"1 48016U 21024AR  22119.91667824 -.00009385  00000-0 -61203-3 0  9998","APOAPSIS":"548.615","CENTER_NAME":"EARTH","RCS_SIZE":"LARGE","EPHEMERIS_TYPE":"0","TIME_SYSTEM":"UTC","REV_AT_EPOCH":"360","ELEMENT_SET_NO":"999","MEAN_ANOMALY":"114.1688","OBJECT_TYPE":"PAYLOAD","RA_OF_ASC_NODE":"100.3260","CLASSIFICATION_TYPE":"U","MEAN_ELEMENT_THEORY":"SGP4","OBJECT_NAME":"STARLINK-2284","LAUNCH_DATE":"2021-03-24","GP_ID":"202309975","SEMIMAJOR_AXIS":"6925.368","PERIAPSIS":"545.850","ARG_OF_PERICENTER":"46.7515"},{"PERIAPSIS":"344.926","ARG_OF_PERICENTER":"9.5249","GP_ID":"202274406","SEMIMAJOR_AXIS":"6730.038","CLASSIFICATION_TYPE":"U","MEAN_ELEMENT_THEORY":"SGP4","LAUNCH_DATE":"2021-03-24","OBJECT_NAME":"STARLINK-2239","RA_OF_ASC_NODE":"130.7117","OBJECT_TYPE":"PAYLOAD","ELEMENT_SET_NO":"999","MEAN_ANOMALY":"350.5963","EPHEMERIS_TYPE":"0","TIME_SYSTEM":"UTC","REV_AT_EPOCH":"6274","APOAPSIS":"358.880","RCS_SIZE":"LARGE","CENTER_NAME":"EARTH","MEAN_MOTION_DOT":"0.00133990","TLE_LINE1":"1 48017U 21024AS  22119.42353878  .00133990  00000-0  97176-3 0  9992","MEAN_MOTION":"15.72448810","INCLINATION":"53.0473","DECAY_DATE":null,"NORAD_CAT_ID":"48017","FILE":"3421553","MEAN_MOTION_DDOT":"0.0000000000000","SITE":"AFETR","TLE_LINE2":"2 48017  53.0473 130.7117 0010367   9.5249 350.5963 15.72448810 62740","PERIOD":"91.577","COUNTRY_CODE":"US","OBJECT_ID":"2021-024AS","BSTAR":"0.00097176000000","EPOCH":"2022-04-29T10:09:53.750592","REF_FRAME":"TEME","ECCENTRICITY":"0.00103670"},{"MEAN_MOTION":"15.06405173","INCLINATION":"53.0541","NORAD_CAT_ID":"48018","DECAY_DATE":null,"APOAPSIS":"548.579","RCS_SIZE":"LARGE","CENTER_NAME":"EARTH","TLE_LINE1":"1 48018U 21024AT  22119.61152007  .00002288  00000-0  17243-3 0  9997","MEAN_MOTION_DOT":"0.00002288","OBJECT_ID":"2021-024AT","COUNTRY_CODE":"US","EPOCH":"2022-04-29T14:40:35.334048","BSTAR":"0.00017243000000","ECCENTRICITY":"0.00019950","REF_FRAME":"TEME","FILE":"3421985","MEAN_MOTION_DDOT":"0.0000000000000","PERIOD":"95.592","TLE_LINE2":"2 48018  53.0541 171.6998 0001995  46.4575 313.6580 15.06405173 62249","SITE":"AFETR","CLASSIFICATION_TYPE":"U","LAUNCH_DATE":"2021-03-24","OBJECT_NAME":"STARLINK-2282","MEAN_ELEMENT_THEORY":"SGP4","PERIAPSIS":"545.816","ARG_OF_PERICENTER":"46.4575","SEMIMAJOR_AXIS":"6925.333","GP_ID":"202310483","ELEMENT_SET_NO":"999","MEAN_ANOMALY":"313.6580","EPHEMERIS_TYPE":"0","TIME_SYSTEM":"UTC","REV_AT_EPOCH":"6224","OBJECT_TYPE":"PAYLOAD","RA_OF_ASC_NODE":"171.6998"}];
